[{"OBJECT_NAME":"STARLINK-36659","OBJECT_ID":"2026-033N","EPOCH":"2026-03-09T22:31:35.685408","MEAN_MOTION":15.82120696,"ECCENTRICITY":0.00021777,"INCLINATION":42.9978,"RA_OF_ASC_NODE":269.8821,"ARG_OF_PERICENTER":260.9113,"MEAN_ANOMALY":99.1513,"EPHEMERIS_TYPE":0,"CLASSIFICATION_TYPE":"U","NORAD_CAT_ID":67833,"ELEMENT_SET_NO":999,"REV_AT_EPOCH":466,"BSTAR":0.0014447072,"MEAN_MOTION_DOT":0.0031661,"MEAN_MOTION_DDOT":0},{"OBJECT_NAME":"AUREOLE 2","OBJECT_ID":"1973-107A","EPOCH":"2026-03-09T19:32:26.968128","MEAN_MOTION":15.58296371,"ECCENTRICITY":0.01243366,"INCLINATION":73.8954,"RA_OF_ASC_NODE":41.4828,"ARG_OF_PERICENTER":3.3524,"MEAN_ANOMALY":356.8494,"EPHEMERIS_TYPE":0,"CLASSIFICATION_TYPE":"U","NORAD_CAT_ID":7003,"ELEMENT_SET_NO":999,"REV_AT_EPOCH":68892,"BSTAR":0.00079431495,"MEAN_MOTION_DOT":0.00087862,"MEAN_MOTION_DDOT":0}]
